{
  "type": "FeatureCollection",
  "features": [
    {
      "type": "Feature",
      "properties": {
        "norad_id": 66537,
        "name": "STARLINK-35582",
        "group": "last-30-days",
        "lat": 37.75539613841275,
        "lon": 76.71494778333171,
        "alt_km": 409.36989975527104,
        "timestamp": "2025-12-18T10:51:24.513354+00:00",
        "meta_object_name": "STARLINK-35582",
        "meta_object_id": "2025-265X",
        "meta_epoch": "2025-12-17T09:50:55.773600",
        "meta_mean_motion": 15.50588967,
        "meta_eccentricity": 0.0001772,
        "meta_inclination": 43.0012,
        "meta_ra_of_asc_node": 26.6066,
        "meta_arg_of_pericenter": 277.8063,
        "meta_mean_anomaly": 82.2596,
        "meta_ephemeris_type": 0,
        "meta_classification_type": "U",
        "meta_norad_cat_id": 66537,
        "meta_element_set_no": 999,
        "meta_rev_at_epoch": 448,
        "meta_bstar": 0.0014380224,
        "meta_mean_motion_dot": 0.00084972,
        "meta_mean_motion_ddot": 0,
        "tle_line1": "1 66537U 25265X   25351.41036775  .00084972  00000+0  14380-2 0  9993",
        "tle_line2": "2 66537  43.0012  26.6066 0001772 277.8063  82.2596 15.50588967  4487"
      },
      "geometry": {
        "type": "Point",
        "coordinates": [
          76.71494778333171,
          37.75539613841275
        ]
      }
    },
    {
      "type": "Feature",
      "properties": {
        "norad_id": 66538,
        "name": "STARLINK-35577",
        "group": "last-30-days",
        "lat": 38.470026098171665,
        "lon": 79.00841068870189,
        "alt_km": 409.16560054653473,
        "timestamp": "2025-12-18T10:51:24.513365+00:00",
        "meta_object_name": "STARLINK-35577",
        "meta_object_id": "2025-265Y",
        "meta_epoch": "2025-12-17T09:50:26.132352",
        "meta_mean_motion": 15.50591082,
        "meta_eccentricity": 0.00013928,
        "meta_inclination": 43.001,
        "meta_ra_of_asc_node": 26.6049,
        "meta_arg_of_pericenter": 263.8064,
        "meta_mean_anomaly": 96.2638,
        "meta_ephemeris_type": 0,
        "meta_classification_type": "U",
        "meta_norad_cat_id": 66538,
        "meta_element_set_no": 999,
        "meta_rev_at_epoch": 448,
        "meta_bstar": 0.0015140009,
        "meta_mean_motion_dot": 0.00089538,
        "meta_mean_motion_ddot": 0,
        "tle_line1": "1 66538U 25265Y   25351.41002468  .00089538  00000+0  15140-2 0  9994",
        "tle_line2": "2 66538  43.0010  26.6049 0001392 263.8064  96.2638 15.50591082  4485"
      },
      "geometry": {
        "type": "Point",
        "coordinates": [
          79.00841068870189,
          38.470026098171665
        ]
      }
    },
    {
      "type": "Feature",
      "properties": {
        "norad_id": 66539,
        "name": "STARLINK-35697",
        "group": "last-30-days",
        "lat": 39.08738871078093,
        "lon": 81.16057304799969,
        "alt_km": 409.58196352488085,
        "timestamp": "2025-12-18T10:51:24.513376+00:00",
        "meta_object_name": "STARLINK-35697",
        "meta_object_id": "2025-265Z",
        "meta_epoch": "2025-12-17T11:22:41.200608",
        "meta_mean_motion": 15.50576211,
        "meta_eccentricity": 0.00020261,
        "meta_inclination": 42.9996,
        "meta_ra_of_asc_node": 26.2239,
        "meta_arg_of_pericenter": 273.6724,
        "meta_mean_anomaly": 86.3905,
        "meta_ephemeris_type": 0,
        "meta_classification_type": "U",
        "meta_norad_cat_id": 66539,
        "meta_element_set_no": 999,
        "meta_rev_at_epoch": 449,
        "meta_bstar": 0.0011358141,
        "meta_mean_motion_dot": 0.00066857,
        "meta_mean_motion_ddot": 0,
        "tle_line1": "1 66539U 25265Z   25351.47408797  .00066857  00000+0  11358-2 0  9992",
        "tle_line2": "2 66539  42.9996  26.2239 0002026 273.6724  86.3905 15.50576211  4496"
      },
      "geometry": {
        "type": "Point",
        "coordinates": [
          81.16057304799969,
          39.08738871078093
        ]
      }
    },
    {
      "type": "Feature",
      "properties": {
        "norad_id": 66540,
        "name": "STARLINK-35818",
        "group": "last-30-days",
        "lat": 39.65635973803627,
        "lon": 83.31136928261957,
        "alt_km": 409.7653391241056,
        "timestamp": "2025-12-18T10:51:24.513386+00:00",
        "meta_object_name": "STARLINK-35818",
        "meta_object_id": "2025-265AA",
        "meta_epoch": "2025-12-17T09:49:26.873184",
        "meta_mean_motion": 15.50570113,
        "meta_eccentricity": 0.0002163,
        "meta_inclination": 43.0002,
        "meta_ra_of_asc_node": 26.5974,
        "meta_arg_of_pericenter": 273.8138,
        "meta_mean_anomaly": 86.2475,
        "meta_ephemeris_type": 0,
        "meta_classification_type": "U",
        "meta_norad_cat_id": 66540,
        "meta_element_set_no": 999,
        "meta_rev_at_epoch": 448,
        "meta_bstar": 0.00063150289,
        "meta_mean_motion_dot": 0.0003687,
        "meta_mean_motion_ddot": 0,
        "tle_line1": "1 66540U 25265AA  25351.40933881  .00036870  00000+0  63150-3 0  9994",
        "tle_line2": "2 66540  43.0002  26.5974 0002163 273.8138  86.2475 15.50570113  4485"
      },
      "geometry": {
        "type": "Point",
        "coordinates": [
          83.31136928261957,
          39.65635973803627
        ]
      }
    },
    {
      "type": "Feature",
      "properties": {
        "norad_id": 66541,
        "name": "STARLINK-35796",
        "group": "last-30-days",
        "lat": -42.78119277860279,
        "lon": -75.86930612736269,
        "alt_km": 446.64486377505,
        "timestamp": "2025-12-18T10:51:24.513397+00:00",
        "meta_object_name": "STARLINK-35796",
        "meta_object_id": "2025-265AB",
        "meta_epoch": "2025-12-18T00:00:02.000160",
        "meta_mean_motion": 15.40660964,
        "meta_eccentricity": 0.00010732,
        "meta_inclination": 43.0011,
        "meta_ra_of_asc_node": 23.5034,
        "meta_arg_of_pericenter": 258.6474,
        "meta_mean_anomaly": 14.4892,
        "meta_ephemeris_type": 0,
        "meta_classification_type": "U",
        "meta_norad_cat_id": 66541,
        "meta_element_set_no": 999,
        "meta_rev_at_epoch": 584,
        "meta_bstar": 0.0013764089,
        "meta_mean_motion_dot": 0.00057552,
        "meta_mean_motion_ddot": 0,
        "tle_line1": "1 66541U 25265AB  25352.00002315  .00057552  00000+0  13764-2 0  9996",
        "tle_line2": "2 66541  43.0011  23.5034 0001073 258.6474  14.4892 15.40660964  5843"
      },
      "geometry": {
        "type": "Point",
        "coordinates": [
          -75.86930612736269,
          -42.78119277860279
        ]
      }
    },
    {
      "type": "Feature",
      "properties": {
        "norad_id": 66542,
        "name": "STARLINK-35833",
        "group": "last-30-days",
        "lat": -28.958379172091153,
        "lon": -15.651933709497026,
        "alt_km": 446.12129076136716,
        "timestamp": "2025-12-18T10:51:24.513407+00:00",
        "meta_object_name": "STARLINK-35833",
        "meta_object_id": "2025-265AC",
        "meta_epoch": "2025-12-18T00:00:02.000160",
        "meta_mean_motion": 15.40667753,
        "meta_eccentricity": 9.801e-05,
        "meta_inclination": 43.0006,
        "meta_ra_of_asc_node": 23.3835,
        "meta_arg_of_pericenter": 265.4815,
        "meta_mean_anomaly": 57.4051,
        "meta_ephemeris_type": 0,
        "meta_classification_type": "U",
        "meta_norad_cat_id": 66542,
        "meta_element_set_no": 999,
        "meta_rev_at_epoch": 584,
        "meta_bstar": 0.0017745594,
        "meta_mean_motion_dot": 0.0007447,
        "meta_mean_motion_ddot": 0,
        "tle_line1": "1 66542U 25265AC  25352.00002315  .00074470  00000+0  17746-2 0  9999",
        "tle_line2": "2 66542  43.0006  23.3835 0000980 265.4815  57.4051 15.40667753  5843"
      },
      "geometry": {
        "type": "Point",
        "coordinates": [
          -15.651933709497026,
          -28.958379172091153
        ]
      }
    },
    {
      "type": "Feature",
      "properties": {
        "norad_id": 66543,
        "name": "STARLINK-35315",
        "group": "last-30-days",
        "lat": 11.42452220322291,
        "lon": 33.14951272699446,
        "alt_km": 442.2917068301358,
        "timestamp": "2025-12-18T10:51:24.513421+00:00",
        "meta_object_name": "STARLINK-35315",
        "meta_object_id": "2025-265AD",
        "meta_epoch": "2025-12-17T22:00:01.999584",
        "meta_mean_motion": 15.40632997,
        "meta_eccentricity": 0.00018216,
        "meta_inclination": 43.0004,
        "meta_ra_of_asc_node": 23.7125,
        "meta_arg_of_pericenter": 281.4275,
        "meta_mean_anomaly": 0.9241,
        "meta_ephemeris_type": 0,
        "meta_classification_type": "U",
        "meta_norad_cat_id": 66543,
        "meta_element_set_no": 999,
        "meta_rev_at_epoch": 571,
        "meta_bstar": 0.0012215847,
        "meta_mean_motion_dot": 0.00050953,
        "meta_mean_motion_ddot": 0,
        "tle_line1": "1 66543U 25265AD  25351.91668981  .00050953  00000+0  12216-2 0  9993",
        "tle_line2": "2 66543  43.0004  23.7125 0001821 281.4275   0.9241 15.40632997  5713"
      },
      "geometry": {
        "type": "Point",
        "coordinates": [
          33.14951272699446,
          11.42452220322291
        ]
      }
    }
  ]
}